CCSDS_OMM_VERS = 2.0
CREATION_DATE  = 
ORIGINATOR     = 

OBJECT_NAME    = STARLINK-36840
OBJECT_ID      = 2026-034A
CENTER_NAME    = EARTH
REF_FRAME      = TEME
TIME_SYSTEM    = UTC
MEAN_ELEMENT_THEORY = SGP/SGP4

EPOCH          = 2026-03-02T20:00:01.999008
MEAN_MOTION    = 15.80854239
ECCENTRICITY   = .0001012
INCLINATION    = 53.1584
RA_OF_ASC_NODE = 245.7208
ARG_OF_PERICENTER = 60.4379
MEAN_ANOMALY   = 257.8245

EPHEMERIS_TYPE = 0
CLASSIFICATION_TYPE = U
NORAD_CAT_ID   = 67850
ELEMENT_SET_NO = 999
REV_AT_EPOCH   = 281
BSTAR          = .16226E-3
MEAN_MOTION_DOT = .31415E-3
MEAN_MOTION_DDOT = 0

CCSDS_OMM_VERS = 2.0
CREATION_DATE  = 
ORIGINATOR     = 

OBJECT_NAME    = STARLINK-36348
OBJECT_ID      = 2026-034B
CENTER_NAME    = EARTH
REF_FRAME      = TEME
TIME_SYSTEM    = UTC
MEAN_ELEMENT_THEORY = SGP/SGP4

EPOCH          = 2026-03-02T20:00:01.999008
MEAN_MOTION    = 15.80857606
ECCENTRICITY   = .0001035
INCLINATION    = 53.1582
RA_OF_ASC_NODE = 245.7114
ARG_OF_PERICENTER = 63.9259
MEAN_ANOMALY   = 258.6092

EPHEMERIS_TYPE = 0
CLASSIFICATION_TYPE = U
NORAD_CAT_ID   = 67851
ELEMENT_SET_NO = 999
REV_AT_EPOCH   = 276
BSTAR          = .14081E-3
MEAN_MOTION_DOT = .27159E-3
MEAN_MOTION_DDOT = 0

CCSDS_OMM_VERS = 2.0
CREATION_DATE  = 
ORIGINATOR     = 

OBJECT_NAME    = STARLINK-36276
OBJECT_ID      = 2026-034C
CENTER_NAME    = EARTH
REF_FRAME      = TEME
TIME_SYSTEM    = UTC
MEAN_ELEMENT_THEORY = SGP/SGP4

EPOCH          = 2026-03-02T20:00:01.999008
MEAN_MOTION    = 15.80862103
ECCENTRICITY   = .0001515
INCLINATION    = 53.1602
RA_OF_ASC_NODE = 245.7024
ARG_OF_PERICENTER = 61.8913
MEAN_ANOMALY   = 264.9090

EPHEMERIS_TYPE = 0
CLASSIFICATION_TYPE = U
NORAD_CAT_ID   = 67852
ELEMENT_SET_NO = 999
REV_AT_EPOCH   = 276
BSTAR          = -.11633E-4
MEAN_MOTION_DOT = -.2994E-4
MEAN_MOTION_DDOT = 0

CCSDS_OMM_VERS = 2.0
CREATION_DATE  = 
ORIGINATOR     = 

OBJECT_NAME    = STARLINK-36785
OBJECT_ID      = 2026-034D
CENTER_NAME    = EARTH
REF_FRAME      = TEME
TIME_SYSTEM    = UTC
MEAN_ELEMENT_THEORY = SGP/SGP4

EPOCH          = 2026-03-02T20:00:01.999008
MEAN_MOTION    = 15.80866347
ECCENTRICITY   = .0001231
INCLINATION    = 53.1586
RA_OF_ASC_NODE = 245.6932
ARG_OF_PERICENTER = 62.2881
MEAN_ANOMALY   = 268.7891

EPHEMERIS_TYPE = 0
CLASSIFICATION_TYPE = U
NORAD_CAT_ID   = 67853
ELEMENT_SET_NO = 999
REV_AT_EPOCH   = 276
BSTAR          = .72917E-5
MEAN_MOTION_DOT = .74E-5
MEAN_MOTION_DDOT = 0

CCSDS_OMM_VERS = 2.0
CREATION_DATE  = 
ORIGINATOR     = 

OBJECT_NAME    = STARLINK-36608
OBJECT_ID      = 2026-034E
CENTER_NAME    = EARTH
REF_FRAME      = TEME
TIME_SYSTEM    = UTC
MEAN_ELEMENT_THEORY = SGP/SGP4

EPOCH          = 2026-03-02T20:00:01.999008
MEAN_MOTION    = 15.80884584
ECCENTRICITY   = .00012
INCLINATION    = 53.1596
RA_OF_ASC_NODE = 245.6845
ARG_OF_PERICENTER = 69.7277
MEAN_ANOMALY   = 265.6255

EPHEMERIS_TYPE = 0
CLASSIFICATION_TYPE = U
NORAD_CAT_ID   = 67854
ELEMENT_SET_NO = 999
REV_AT_EPOCH   = 276
BSTAR          = -.27226E-3
MEAN_MOTION_DOT = -.54128E-3
MEAN_MOTION_DDOT = 0

CCSDS_OMM_VERS = 2.0
CREATION_DATE  = 
ORIGINATOR     = 

OBJECT_NAME    = STARLINK-36838
OBJECT_ID      = 2026-034F
CENTER_NAME    = EARTH
REF_FRAME      = TEME
TIME_SYSTEM    = UTC
MEAN_ELEMENT_THEORY = SGP/SGP4

EPOCH          = 2026-03-02T20:00:01.999008
MEAN_MOTION    = 15.80910055
ECCENTRICITY   = .0001436
INCLINATION    = 53.1597
RA_OF_ASC_NODE = 245.6754
ARG_OF_PERICENTER = 57.2758
MEAN_ANOMALY   = 282.3414

EPHEMERIS_TYPE = 0
CLASSIFICATION_TYPE = U
NORAD_CAT_ID   = 67855
ELEMENT_SET_NO = 999
REV_AT_EPOCH   = 276
BSTAR          = -.54861E-3
MEAN_MOTION_DOT = -.107826E-2
MEAN_MOTION_DDOT = 0

CCSDS_OMM_VERS = 2.0
CREATION_DATE  = 
ORIGINATOR     = 

OBJECT_NAME    = STARLINK-36843
OBJECT_ID      = 2026-034G
CENTER_NAME    = EARTH
REF_FRAME      = TEME
TIME_SYSTEM    = UTC
MEAN_ELEMENT_THEORY = SGP/SGP4

EPOCH          = 2026-03-02T20:00:01.999008
MEAN_MOTION    = 15.80902345
ECCENTRICITY   = .0001224
INCLINATION    = 53.1579
RA_OF_ASC_NODE = 245.6582
ARG_OF_PERICENTER = 68.9089
MEAN_ANOMALY   = 279.2493

EPHEMERIS_TYPE = 0
CLASSIFICATION_TYPE = U
NORAD_CAT_ID   = 67856
ELEMENT_SET_NO = 999
REV_AT_EPOCH   = 276
BSTAR          = -.29628E-3
MEAN_MOTION_DOT = -.58858E-3
MEAN_MOTION_DDOT = 0

CCSDS_OMM_VERS = 2.0
CREATION_DATE  = 
ORIGINATOR     = 

OBJECT_NAME    = STARLINK-36828
OBJECT_ID      = 2026-034H
CENTER_NAME    = EARTH
REF_FRAME      = TEME
TIME_SYSTEM    = UTC
MEAN_ELEMENT_THEORY = SGP/SGP4

EPOCH          = 2026-03-02T20:00:01.999008
MEAN_MOTION    = 15.80852692
ECCENTRICITY   = .0001233
INCLINATION    = 53.1577
RA_OF_ASC_NODE = 245.6673
ARG_OF_PERICENTER = 68.7335
MEAN_ANOMALY   = 275.1618

EPHEMERIS_TYPE = 0
CLASSIFICATION_TYPE = U
NORAD_CAT_ID   = 67857
ELEMENT_SET_NO = 999
REV_AT_EPOCH   = 276
BSTAR          = .17955E-3
MEAN_MOTION_DOT = .34848E-3
MEAN_MOTION_DDOT = 0

CCSDS_OMM_VERS = 2.0
CREATION_DATE  = 
ORIGINATOR     = 

OBJECT_NAME    = STARLINK-36837
OBJECT_ID      = 2026-034J
CENTER_NAME    = EARTH
REF_FRAME      = TEME
TIME_SYSTEM    = UTC
MEAN_ELEMENT_THEORY = SGP/SGP4

EPOCH          = 2026-03-02T20:00:01.999008
MEAN_MOTION    = 15.80882629
ECCENTRICITY   = .0001605
INCLINATION    = 53.1596
RA_OF_ASC_NODE = 245.6486
ARG_OF_PERICENTER = 85.7577
MEAN_ANOMALY   = 266.6856

EPHEMERIS_TYPE = 0
CLASSIFICATION_TYPE = U
NORAD_CAT_ID   = 67858
ELEMENT_SET_NO = 999
REV_AT_EPOCH   = 276
BSTAR          = -.28955E-3
MEAN_MOTION_DOT = -.57497E-3
MEAN_MOTION_DDOT = 0

CCSDS_OMM_VERS = 2.0
CREATION_DATE  = 
ORIGINATOR     = 

OBJECT_NAME    = STARLINK-36393
OBJECT_ID      = 2026-034K
CENTER_NAME    = EARTH
REF_FRAME      = TEME
TIME_SYSTEM    = UTC
MEAN_ELEMENT_THEORY = SGP/SGP4

EPOCH          = 2026-03-02T20:00:01.999008
MEAN_MOTION    = 15.80898728
ECCENTRICITY   = .0000811
INCLINATION    = 53.1582
RA_OF_ASC_NODE = 245.6398
ARG_OF_PERICENTER = 44.2392
MEAN_ANOMALY   = 312.4636

EPHEMERIS_TYPE = 0
CLASSIFICATION_TYPE = U
NORAD_CAT_ID   = 67859
ELEMENT_SET_NO = 999
REV_AT_EPOCH   = 276
BSTAR          = -.40617E-3
MEAN_MOTION_DOT = -.80215E-3
MEAN_MOTION_DDOT = 0

CCSDS_OMM_VERS = 2.0
CREATION_DATE  = 
ORIGINATOR     = 

OBJECT_NAME    = STARLINK-35873
OBJECT_ID      = 2026-034L
CENTER_NAME    = EARTH
REF_FRAME      = TEME
TIME_SYSTEM    = UTC
MEAN_ELEMENT_THEORY = SGP/SGP4

EPOCH          = 2026-03-02T20:00:01.999008
MEAN_MOTION    = 15.80836486
ECCENTRICITY   = .0001037
INCLINATION    = 53.1580
RA_OF_ASC_NODE = 245.6309
ARG_OF_PERICENTER = 89.0288
MEAN_ANOMALY   = 271.9827

EPHEMERIS_TYPE = 0
CLASSIFICATION_TYPE = U
NORAD_CAT_ID   = 67860
ELEMENT_SET_NO = 999
REV_AT_EPOCH   = 290
BSTAR          = .94926E-4
MEAN_MOTION_DOT = .18044E-3
MEAN_MOTION_DDOT = 0

CCSDS_OMM_VERS = 2.0
CREATION_DATE  = 
ORIGINATOR     = 

OBJECT_NAME    = STARLINK-36325
OBJECT_ID      = 2026-034M
CENTER_NAME    = EARTH
REF_FRAME      = TEME
TIME_SYSTEM    = UTC
MEAN_ELEMENT_THEORY = SGP/SGP4

EPOCH          = 2026-03-02T20:00:01.999008
MEAN_MOTION    = 15.80853710
ECCENTRICITY   = .0001241
INCLINATION    = 53.1582
RA_OF_ASC_NODE = 245.6221
ARG_OF_PERICENTER = 65.1232
MEAN_ANOMALY   = 300.1268

EPHEMERIS_TYPE = 0
CLASSIFICATION_TYPE = U
NORAD_CAT_ID   = 67861
ELEMENT_SET_NO = 999
REV_AT_EPOCH   = 276
BSTAR          = .2405E-3
MEAN_MOTION_DOT = .46983E-3
MEAN_MOTION_DDOT = 0

