STARLINK-36840          
1 67850U 26034A   26061.83335647  .00031415  00000+0  16226-3 0  9998
2 67850  53.1584 245.7208 0001012  60.4379 257.8245 15.80854239  2814
STARLINK-36348          
1 67851U 26034B   26061.83335647  .00027159  00000+0  14081-3 0  9996
2 67851  53.1582 245.7114 0001035  63.9259 258.6092 15.80857606  2763
STARLINK-36276          
1 67852U 26034C   26061.83335647 -.00002994  00000+0 -11633-4 0  9990
2 67852  53.1602 245.7024 0001515  61.8913 264.9090 15.80862103  2760
STARLINK-36785          
1 67853U 26034D   26061.83335647  .00000740  00000+0  72917-5 0  9999
2 67853  53.1586 245.6932 0001231  62.2881 268.7891 15.80866347  2768
STARLINK-36608          
1 67854U 26034E   26061.83335647 -.00054128  00000+0 -27226-3 0  9992
2 67854  53.1596 245.6845 0001200  69.7277 265.6255 15.80884584  2763
STARLINK-36838          
1 67855U 26034F   26061.83335647 -.00107826  00000+0 -54861-3 0  9992
2 67855  53.1597 245.6754 0001436  57.2758 282.3414 15.80910055  2767
STARLINK-36843          
1 67856U 26034G   26061.83335647 -.00058858  00000+0 -29628-3 0  9996
2 67856  53.1579 245.6582 0001224  68.9089 279.2493 15.80902345  2763
STARLINK-36828          
1 67857U 26034H   26061.83335647  .00034848  00000+0  17955-3 0  9998
2 67857  53.1577 245.6673 0001233  68.7335 275.1618 15.80852692  2768
STARLINK-36837          
1 67858U 26034J   26061.83335647 -.00057497  00000+0 -28955-3 0  9998
2 67858  53.1596 245.6486 0001605  85.7577 266.6856 15.80882629  2764
STARLINK-36393          
1 67859U 26034K   26061.83335647 -.00080215  00000+0 -40617-3 0  9992
2 67859  53.1582 245.6398 0000811  44.2392 312.4636 15.80898728  2768
STARLINK-35873          
1 67860U 26034L   26061.83335647  .00018044  00000+0  94926-4 0  9996
2 67860  53.1580 245.6309 0001037  89.0288 271.9827 15.80836486  2902
STARLINK-36325          
1 67861U 26034M   26061.83335647  .00046983  00000+0  24050-3 0  9990
2 67861  53.1582 245.6221 0001241  65.1232 300.1268 15.80853710  2766
